$$SOE
2461302.500000000, A.D. 2026-Sep-19 00:00:00.0000, 3.155436274556134E+08, 1.885654818442083E+08, 5.616141248472012E+07,
2461309.500000000, A.D. 2026-Sep-26 00:00:00.0000, 3.103833487653832E+08, 1.981782890578260E+08, 5.781993008812229E+07,
2461316.500000000, A.D. 2026-Oct-03 00:00:00.0000, 3.049321821374576E+08, 2.076053577518060E+08, 5.942426022843257E+07,
2461323.500000000, A.D. 2026-Oct-10 00:00:00.0000, 2.991972559038748E+08, 2.168392264924706E+08, 6.097329304579054E+07,
2461330.500000000, A.D. 2026-Oct-17 00:00:00.0000, 2.931858117784351E+08, 2.258726815181930E+08, 6.246597535300216E+07,
2461337.500000000, A.D. 2026-Oct-24 00:00:00.0000, 2.869051976016151E+08, 2.346987528844899E+08, 6.390130945418219E+07,
2461344.500000000, A.D. 2026-Oct-31 00:00:00.0000, 2.803628606712765E+08, 2.433107104182140E+08, 6.527835196590647E+07,
2461351.500000000, A.D. 2026-Nov-07 00:00:00.0000, 2.735663419748136E+08, 2.517020595748591E+08, 6.659621261709224E+07,
2461358.500000000, A.D. 2026-Nov-14 00:00:00.0000, 2.665232714981093E+08, 2.598665381051811E+08, 6.785405308180696E+07,
2461365.500000000, A.D. 2026-Nov-21 00:00:00.0000, 2.592413627700602E+08, 2.677981142321640E+08, 6.905108606674333E+07,
2461372.500000000, A.D. 2026-Nov-28 00:00:00.0000, 2.517284056180666E+08, 2.754909833576237E+08, 7.018657450325610E+07,
2461379.500000000, A.D. 2026-Dec-05 00:00:00.0000, 2.439922607414832E+08, 2.829395626699544E+08, 7.125983046622470E+07,
2461386.500000000, A.D. 2026-Dec-12 00:00:00.0000, 2.360408562558787E+08, 2.901384867803097E+08, 7.227021406365281E+07,
2461393.500000000, A.D. 2026-Dec-19 00:00:00.0000, 2.278821843038430E+08, 2.970826044059030E+08, 7.321713247339392E+07,
2461400.500000000, A.D. 2026-Dec-26 00:00:00.0000, 2.195242975724697E+08, 3.037669752438104E+08, 7.410003907127576E+07,
2461407.500000000, A.D. 2027-Jan-02 00:00:00.0000, 2.109753059752540E+08, 3.101868668543128E+08, 7.491843261101720E+07,
2461414.500000000, A.D. 2027-Jan-09 00:00:00.0000, 2.022433735963122E+08, 3.163377515828580E+08, 7.567185644754462E+07,
2461421.500000000, A.D. 2027-Jan-16 00:00:00.0000, 1.933367159126679E+08, 3.222153035377766E+08, 7.635989780159859E+07,
2461428.500000000, A.D. 2027-Jan-23 00:00:00.0000, 1.842635973208750E+08, 3.278153955920306E+08, 7.698218705849139E+07,
2461435.500000000, A.D. 2027-Jan-30 00:00:00.0000, 1.750323291362503E+08, 3.331340963690428E+08, 7.753839708029084E+07,
2461442.500000000, A.D. 2027-Feb-06 00:00:00.0000, 1.656512684711808E+08, 3.381676675609038E+08, 7.802824252098428E+07,
2461449.500000000, A.D. 2027-Feb-13 00:00:00.0000, 1.561288175163618E+08, 3.429125628054589E+08, 7.845147928690124E+07,
2461456.500000000, A.D. 2027-Feb-20 00:00:00.0000, 1.464734208433629E+08, 3.473654273326126E+08, 7.880790429286881E+07,
2461463.500000000, A.D. 2027-Feb-27 00:00:00.0000, 1.366935621028772E+08, 3.515230951712988E+08, 7.909735512313502E+07,
2461470.500000000, A.D. 2027-Mar-06 00:00:00.0000, 1.267977631228009E+08, 3.553825858506336E+08, 7.931970947958569E+07,
2461477.500000000, A.D. 2027-Mar-13 00:00:00.0000, 1.167945837939625E+08, 3.589411026488407E+08, 7.947488473125058E+07,
2461484.500000000, A.D. 2027-Mar-20 00:00:00.0000, 1.066926215986264E+08, 3.621960315573982E+08, 7.956283759946784E+07,
2461491.500000000, A.D. 2027-Mar-27 00:00:00.0000, 9.650051096856348E+07, 3.651449404151940E+08, 7.958356391506669E+07,
2461498.500000000, A.D. 2027-Apr-03 00:00:00.0000, 8.622692266131136E+07, 3.677855781689263E+08, 7.953709842500490E+07,
2461505.500000000, A.D. 2027-Apr-10 00:00:00.0000, 7.588056320194860E+07, 3.701158742864257E+08, 7.942351464463115E+07,
2461512.500000000, A.D. 2027-Apr-17 00:00:00.0000, 6.547017439864067E+07, 3.721339383118215E+08, 7.924292475221525E+07,
2461519.500000000, A.D. 2027-Apr-24 00:00:00.0000, 5.500453299728703E+07, 3.738380595033259E+08, 7.899547951320246E+07,
2461526.500000000, A.D. 2027-May-01 00:00:00.0000, 4.449245076074267E+07, 3.752267065844395E+08, 7.868136820886597E+07,
2461533.500000000, A.D. 2027-May-08 00:00:00.0000, 3.394277526590032E+07, 3.762985283611438E+08, 7.830081860263535E+07,
2461540.500000000, A.D. 2027-May-15 00:00:00.0000, 2.336438990983520E+07, 3.770523561628875E+08, 7.785409715951900E+07,
2461547.500000000, A.D. 2027-May-22 00:00:00.0000, 1.276621154903179E+07, 3.774872055137581E+08, 7.734150944838913E+07,
2461554.500000000, A.D. 2027-May-29 00:00:00.0000, 2.157189108972971E+06, 3.776022755647801E+08, 7.676340029850335E+07,
2461561.500000000, A.D. 2027-Jun-05 00:00:00.0000, -8.453695966595259E+06, 3.773969494270076E+08, 7.612015388682507E+07,
2461568.500000000, A.D. 2027-Jun-12 00:00:00.0000, -1.905742944614216E+07, 3.768707958405833E+08, 7.541219397547516E+07,
2461575.500000000, A.D. 2027-Jun-19 00:00:00.0000, -2.964496456639858E+07, 3.760235712450021E+08, 7.463998425249273E+07,
2461582.500000000, A.D. 2027-Jun-26 00:00:00.0000, -4.020722255052224E+07, 3.748552219909720E+08, 7.380402872878465E+07,
2461589.500000000, A.D. 2027-Jul-03 00:00:00.0000, -5.073509327186629E+07, 3.733658867047027E+08, 7.290487217990173E+07,
2461596.500000000, A.D. 2027-Jul-10 00:00:00.0000, -6.121943604142214E+07, 3.715558988155633E+08, 7.194310062976572E+07,
2461603.500000000, A.D. 2027-Jul-17 00:00:00.0000, -7.165108049675520E+07, 3.694257892089078E+08, 7.091934186883783E+07,
2461610.500000000, A.D. 2027-Jul-24 00:00:00.0000, -8.202082745032290E+07, 3.669762889390407E+08, 6.983426598510955E+07,
2461617.500000000, A.D. 2027-Jul-31 00:00:00.0000, -9.231944930250126E+07, 3.642083322328367E+08, 6.868858588662156E+07,
2461624.500000000, A.D. 2027-Aug-07 00:00:00.0000, -1.025376902412399E+08, 3.611230609317251E+08, 6.748305792617521E+07,
2461631.500000000, A.D. 2027-Aug-14 00:00:00.0000, -1.126662685516782E+08, 3.577218301192342E+08, 6.621848281838641E+07,
2461638.500000000, A.D. 2027-Aug-21 00:00:00.0000, -1.226958804369148E+08, 3.540062115677674E+08, 6.489570651671900E+07,
2461645.500000000, A.D. 2027-Aug-28 00:00:00.0000, -1.326172019427400E+08, 3.499779962050399E+08, 6.351562083384490E+07,
2461652.500000000, A.D. 2027-Sep-04 00:00:00.0000, -1.424208901906345E+08, 3.456391981076391E+08, 6.207916411874239E+07,
2461659.500000000, A.D. 2027-Sep-11 00:00:00.0000, -1.520975853321697E+08, 3.409920593606622E+08, 6.058732206243137E+07,
2461666.500000000, A.D. 2027-Sep-18 00:00:00.0000, -1.616379131113403E+08, 3.360390551268216E+08, 5.904112856340027E+07,
2461673.500000000, A.D. 2027-Sep-25 00:00:00.0000, -1.710324878286566E+08, 3.307828988396637E+08, 5.744166662177326E+07,
2461680.500000000, A.D. 2027-Oct-02 00:00:00.0000, -1.802719156561717E+08, 3.252265475403887E+08, 5.579006925403623E+07,
2461687.500000000, A.D. 2027-Oct-09 00:00:00.0000, -1.893467983061324E+08, 3.193732073449193E+08, 5.408752042224477E+07,
2461694.500000000, A.D. 2027-Oct-16 00:00:00.0000, -1.982477370159416E+08, 3.132263389762583E+08, 5.233525596358185E+07,
2461701.500000000, A.D. 2027-Oct-23 00:00:00.0000, -2.069653366160763E+08, 3.067896633446742E+08, 5.053456449181575E+07,
2461708.500000000, A.D. 2027-Oct-30 00:00:00.0000, -2.154902093339282E+08, 3.000671677722921E+08, 4.868678828173546E+07,
2461715.500000000, A.D. 2027-Nov-06 00:00:00.0000, -2.238129795270825E+08, 2.930631139759306E+08, 4.679332433098444E+07,
2461722.500000000, A.D. 2027-Nov-13 00:00:00.0000, -2.319242913611802E+08, 2.857820457187361E+08, 4.485562560690461E+07,
2461729.500000000, A.D. 2027-Nov-20 00:00:00.0000, -2.398148165546120E+08, 2.782287939241788E+08, 4.287520202714519E+07,
2461736.500000000, A.D. 2027-Nov-27 00:00:00.0000, -2.474752606016928E+08, 2.704084821882487E+08, 4.085362126118132E+07,
2461743.500000000, A.D. 2027-Dec-04 00:00:00.0000, -2.548963695333665E+08, 2.623265335807459E+08, 3.879250960707814E+07,
2461750.500000000, A.D. 2027-Dec-11 00:00:00.0000, -2.620689377968543E+08, 2.539886777476530E+08, 3.669355290818299E+07,
2461757.500000000, A.D. 2027-Dec-18 00:00:00.0000, -2.689838170083368E+08, 2.454009579445336E+08, 3.455849744865985E+07,
2461764.500000000, A.D. 2027-Dec-25 00:00:00.0000, -2.756319254567870E+08, 2.365697379637298E+08, 3.238915080504543E+07,
2461771.500000000, A.D. 2028-Jan-01 00:00:00.0000, -2.820042583479503E+08, 2.275017089318172E+08, 3.018738264196347E+07,
$$EOE